#aV1996 12 30 11 38  0.00000000    2479       ITR94 FIT UCAR
##  886 128280.00000000    60.00000000 50447 0.4847222222015
+    1   901  0  0  0  0  0  0  0  0  0  0  0  0  0  0  0  0
+          0  0  0  0  0  0  0  0  0  0  0  0  0  0  0  0  0
+          0  0  0  0  0  0  0  0  0  0  0  0  0  0  0  0  0
+          0  0  0  0  0  0  0  0  0  0  0  0  0  0  0  0  0
+          0  0  0  0  0  0  0  0  0  0  0  0  0  0  0  0  0
++         0  0  0  0  0  0  0  0  0  0  0  0  0  0  0  0  0
++         0  0  0  0  0  0  0  0  0  0  0  0  0  0  0  0  0
++         0  0  0  0  0  0  0  0  0  0  0  0  0  0  0  0  0
++         0  0  0  0  0  0  0  0  0  0  0  0  0  0  0  0  0
++         0  0  0  0  0  0  0  0  0  0  0  0  0  0  0  0  0
%c cc cc ccc ccc cccc cccc cccc cccc ccccc ccccc ccccc ccccc
%c cc cc ccc ccc cccc cccc cccc cccc ccccc ccccc ccccc ccccc
%f 00.0000000 00.000000000 00.00000000000 00.000000000000000
%f 00.0000000 00.000000000 00.00000000000 00.000000000000000
%i 0000 0000 0000 0000 000000 000000 000000 000000 000000000
%i 0000 0000 0000 0000 000000 000000 000000 000000 000000000
/* CCCCCCCCCCCCCCCCCCCCCCCCCCCCCCCCCCCCCCCCCCCCCCCCCCCCCCCCC
/* CCCCCCCCCCCCCCCCCCCCCCCCCCCCCCCCCCCCCCCCCCCCCCCCCCCCCCCCC
/* CCCCCCCCCCCCCCCCCCCCCCCCCCCCCCCCCCCCCCCCCCCCCCCCCCCCCCCCC
/* CCCCCCCCCCCCCCCCCCCCCCCCCCCCCCCCCCCCCCCCCCCCCCCCCCCCCCCCC
*  1997  1  1  3 32  0.00000000
P901   2104.762216   2177.554293   6446.122619 999999.9999
V901 -13821.861036  69129.869533 -18855.040327 999999.9999
*  1997  1  1  3 33  0.00000000
P901   2019.545595   2588.145242   6320.286437 999999.9999
V901 -14576.511892  67689.907119 -23076.654117 999999.9999
*  1997  1  1  3 34  0.00000000
P901   1929.930688   2989.312119   6169.383710 999999.9999
V901 -15287.857733  65989.446981 -27207.808441 999999.9999
*  1997  1  1  3 35  0.00000000
P901   1836.178990   3379.509767   5994.006295 999999.9999
V901 -15955.362137  64034.599126 -31232.195785 999999.9999
*  1997  1  1  3 36  0.00000000
P901   1738.554895   3757.232672   5794.842763 999999.9999
V901 -16578.592366  61832.463593 -35133.896362 999999.9999
*  1997  1  1  3 37  0.00000000
P901   1637.325105   4121.020826   5572.675883 999999.9999
V901 -17157.212023  59391.105776 -38897.440892 999999.9999
*  1997  1  1  3 38  0.00000000
P901   1532.758071   4469.465449   5328.379742 999999.9999
V901 -17690.972769  56719.531495 -42507.868956 999999.9999
*  1997  1  1  3 39  0.00000000
P901   1425.123483   4801.214554   5062.916511 999999.9999
V901 -18179.708430  53827.660245 -45950.790049 999999.9999
*  1997  1  1  3 40  0.00000000
P901   1314.691799   5114.978317   4777.332844 999999.9999
V901 -18623.329462  50726.288480 -49212.441857 999999.9999
*  1997  1  1  3 41  0.00000000
P901   1201.733796   5409.534241   4472.755969 999999.9999
V901 -19021.817360  47427.055693 -52279.737580 999999.9999
*  1997  1  1  3 42  0.00000000
P901   1086.520149   5683.732113   4150.389467 999999.9999
V901 -19375.225560  43942.410670 -55140.321930 999999.9999
*  1997  1  1  3 43  0.00000000
P901    969.321021   5936.498723   3811.508741 999999.9999
V901 -19683.666694  40285.567228 -57782.615775 999999.9999
*  1997  1  1  3 44  0.00000000
P901    850.405771   6166.842401   3457.456205 999999.9999
V901 -19947.295619  36470.486879 -60195.876471 999999.9999
*  1997  1  1  3 45  0.00000000
P901    730.042690   6373.857345   3089.635994 999999.9999
V901 -20166.315047  32511.814899 -62370.283758 999999.9999
*  1997  1  1  3 46  0.00000000
P901    608.498696   6556.727433   2709.508290 999999.9999
V901 -20340.979995  28424.786665 -64296.977424 999999.9999
*  1997  1  1  3 47  0.00000000
P901    486.039032   6714.729594   2318.583543 999999.9999
V901 -20471.592203  24225.179394 -65968.065977 999999.9999
*  1997  1  1  3 48  0.00000000
P901    362.927009   6847.236952   1918.416517 999999.9999
V901 -20558.492307  19929.268543 -67376.680438 999999.9999
*  1997  1  1  3 49  0.00000000
P901    239.423799   6953.721564   1510.600010 999999.9999
V901 -20602.052253  15553.742958 -68517.014396 999999.9999
*  1997  1  1  3 50  0.00000000
P901    115.788263   7033.756692   1096.758436 999999.9999
V901 -20602.669048  11115.639016 -69384.338603 999999.9999
*  1997  1  1  3 51  0.00000000
P901     -7.723193   7087.018708    678.541295 999999.9999
V901 -20560.764898   6632.279811 -69975.025605 999999.9999
*  1997  1  1  3 52  0.00000000
P901   -130.856769   7113.288608    257.616483 999999.9999
V901 -20476.784501   2121.204507 -70286.573583 999999.9999
*  1997  1  1  3 53  0.00000000
P901   -253.361390   7112.453085   -164.336518 999999.9999
V901 -20351.192422  -2399.907120 -70317.624921 999999.9999
*  1997  1  1  3 54  0.00000000
P901   -374.988828   7084.505133   -585.633542 999999.9999
V901 -20184.472263  -6913.313854 -70067.977152 999999.9999
*  1997  1  1  3 55  0.00000000
P901   -495.493813   7029.544180  -1004.592683 999999.9999
V901 -19977.126824 -11401.293211 -69538.586685 999999.9999
*  1997  1  1  3 56  0.00000000
P901   -614.634148   6947.775725  -1419.541241 999999.9999
V901 -19729.677122 -15846.223177 -68731.563160 999999.9999
*  1997  1  1  3 57  0.00000000
P901   -732.170810   6839.510509  -1828.822599 999999.9999
V901 -19442.660013 -20230.657600 -67650.156298 999999.9999
*  1997  1  1  3 58  0.00000000
P901   -847.868045   6705.163237  -2230.803027 999999.9999
V901 -19116.628222 -24537.400745 -66298.741499 999999.9999
*  1997  1  1  3 59  0.00000000
P901   -961.493463   6545.250845  -2623.878367 999999.9999
V901 -18752.150138 -28749.584059 -64682.796722 999999.9999
*  1997  1  1  4  0  0.00000000
P901  -1072.818123   6360.390322  -3006.480560 999999.9999
V901 -18349.806542 -32850.735341 -62808.872404 999999.9999
*  1997  1  1  4  1  0.00000000
P901  -1181.616599   6151.296144  -3377.083997 999999.9999
V901 -17910.188497 -36824.841564 -60684.562477 999999.9999
*  1997  1  1  4  2  0.00000000
P901  -1287.667050   5918.777325  -3734.211690 999999.9999
V901 -17433.900334 -40656.415685 -58318.475030 999999.9999
*  1997  1  1  4  3  0.00000000
P901  -1390.751307   5663.734042  -4076.441243 999999.9999
V901 -16921.561404 -44330.567695 -55720.190677 999999.9999
*  1997  1  1  4  4  0.00000000
P901  -1490.654959   5387.153870  -4402.410528 999999.9999
V901 -16373.805390 -47833.063531 -52900.210347 999999.9999
*  1997  1  1  4  5  0.00000000
P901  -1587.167443   5090.107702  -4710.823067 999999.9999
V901 -15791.282313 -51150.372701 -49869.907821 999999.9999
*  1997  1  1  4  6  0.00000000
P901  -1680.082157   4773.745375  -5000.453128 999999.9999
V901 -15174.662290 -54269.718960 -46641.483967 999999.9999
*  1997  1  1  4  7  0.00000000
P901  -1769.196586   4439.290999  -5270.150534 999999.9999
V901 -14524.638206 -57179.129861 -43227.913627 999999.9999
*  1997  1  1  4  8  0.00000000
P901  -1854.312448   4088.037994  -5518.845142 999999.9999
V901 -13841.928318 -59867.480497 -39642.890170 999999.9999
*  1997  1  1  4  9  0.00000000
P901  -1935.235852   3721.343886  -5745.550979 999999.9999
V901 -13127.279687 -62324.534183 -35900.768053 999999.9999
*  1997  1  1  4 10  0.00000000
P901  -2011.777488   3340.624863  -5949.370034 999999.9999
V901 -12381.471863 -64540.979153 -32016.501990 999999.9999
*  1997  1  1  4 11  0.00000000
P901  -2083.752830   2947.350128  -6129.495668 999999.9999
V901 -11605.321091 -66508.459691 -28005.584349 999999.9999
*  1997  1  1  4 12  0.00000000
P901  -2150.982371   2543.036085  -6285.215649 999999.9999
V901 -10799.684697 -68219.603263 -23883.981751 999999.9999
*  1997  1  1  4 13  0.00000000
P901  -2213.291883   2129.240364  -6415.914806 999999.9999
V901  -9965.466340 -69668.042046 -19668.069420 999999.9999
*  1997  1  1  4 14  0.00000000
P901  -2270.512718   1707.555751  -6521.077287 999999.9999
V901  -9103.623919 -70848.428423 -15374.568928 999999.9999
*  1997  1  1  4 15  0.00000000
P901  -2322.482156   1279.604013  -6600.288460 999999.9999
V901  -8215.175387 -71756.453054 -11020.488867 999999.9999
*  1997  1  1  4 16  0.00000000
P901  -2369.043768    847.029617  -6653.236441 999999.9999
V901  -7301.200349 -72388.859904  -6623.058036 999999.9999
*  1997  1  1  4 17  0.00000000
P901  -2410.047800    411.493395  -6679.713213 999999.9999
V901  -6362.846876 -72743.450423  -2199.658903 999999.9999
*  1997  1  1  4 18  0.00000000
P901  -2445.351625    -25.333814  -6679.615356 999999.9999
V901  -5401.342940 -72819.088312   2232.235030 999999.9999
*  1997  1  1  4 19  0.00000000
P901  -2474.820235   -461.777554  -6652.944403 999999.9999
V901  -4418.000651 -72615.704416   6655.125175 999999.9999
*  1997  1  1  4 20  0.00000000
P901  -2498.326744   -896.166141  -6599.806784 999999.9999
V901  -3414.216570 -72134.290996  11051.553331 999999.9999
*  1997  1  1  4 21  0.00000000
P901  -2515.752920  -1326.837013  -6520.413418 999999.9999
V901  -2391.478973 -71376.894790  15404.158973 999999.9999
*  1997  1  1  4 22  0.00000000
P901  -2526.989754  -1752.143042  -6415.078938 999999.9999
V901  -1351.375876 -70346.613698  19695.741111 999999.9999
*  1997  1  1  4 23  0.00000000
P901  -2531.938078  -2170.458825  -6284.220545 999999.9999
V901   -295.600305 -69047.589141  23909.322229 999999.9999
*  1997  1  1  4 24  0.00000000
P901  -2530.509206  -2580.186908  -6128.356472 999999.9999
V901    774.046640 -67484.994822  28028.214280 999999.9999
*  1997  1  1  4 25  0.00000000
P901  -2522.625588  -2979.763934  -5948.104047 999999.9999
V901   1855.653969 -65665.017902  32036.083081 999999.9999
*  1997  1  1  4 26  0.00000000
P901  -2508.221477  -3367.666658  -5744.177391 999999.9999
V901   2947.197220 -63594.839265  35917.009795 999999.9999
*  1997  1  1  4 27  0.00000000
P901  -2487.243621  -3742.417845  -5517.384727 999999.9999
V901   4046.535540 -61282.610096  39655.555430 999999.9999
*  1997  1  1  4 28  0.00000000
P901  -2459.651964  -4102.592007  -5268.625321 999999.9999
V901   5151.411827 -58737.423400  43236.822734 999999.9999
EOF
